#dP2020 12 22  0  0  0.00000000      96 __u+U ITR00 FIT  IAC
## 2137 172800.00000000   900.00000000 59205 0.0000000000000
+  113   C01C02C04C05C06C07C08C09C10C11C12C13C14C16C19C20C21
+        C22C23C24C25C26C27C28C29C30C32C33C34C35C36C37C40E01
+        E02E03E04E05E07E08E09E11E12E13E14E15E18E19E21E24E25
+        E26E27E30E31E33E36G01G02G03G04G05G06G07G08G09G10G11
+        G12G13G14G15G16G17G18G19G20G21G22G23G24G25G26G27G28
+        G29G30G31G32J01J02J03J07R01R02R03R04R05R07R08R09R12
+        R13R14R15R16R17R18R19R20R21R22R24  0  0  0  0  0  0
++         0 13 14 13  8  9  8  8  8  8  8  8  8  8  8  8  8
++         8  8  8  8  8  8  8  8  8  8  8  8  8  8  8 11  5
++         5  5  5  6  5  5  6  5  4  5  5  5  5  5  5  4  5
++         5  5  5  5  5  5  4  4  4  4  4  4  4  3  4  4  4
++         4  3  4  4  4  4  4  4  4  4  4  4  4  4  4  4  4
++         4  4  4  4  8  8  8 14  6  6  6  6  6  6  6  6  6
++         6  6  6  6  6  6  6  7  6  7  6  0  0  0  0  0  0
%c M  cc GPS ccc cccc cccc cccc cccc ccccc ccccc ccccc ccccc
%c cc cc ccc ccc cccc cccc cccc cccc ccccc ccccc ccccc ccccc
%f  0.0000000  0.000000000  0.00000000000  0.000000000000000
%f  0.0000000  0.000000000  0.00000000000  0.000000000000000
%i    0    0    0    0      0      0      0      0         0
%i    0    0    0    0      0      0      0      0         0
/* INFORMATION & ANALYSIS CENTER (IAC)            RAPID DATA
/* S/V CLOCKS ARE ALIGNED TO GNSS TIME                      
/* G:C1WC2W R:C1PC2P E:C1XC5X C:C2IC6I J:C1CC2S             
/* PCV:IGS14_2134 OL/AL:FES2004  NONE     YN ORB:CoN CLK:CoN
*  2020 12 22 13  0  0.00000000
PC01      0.000000      0.000000      0.000000 999999.999999
PC02   4319.360935  41896.843899  -1093.640372    651.654549
PC04 -39617.726261  14496.299943    395.548140   -246.880613
PC05  21799.149671  36054.977200  -1382.227377   -364.975178
PC06  -8218.610345  33719.899724 -23213.741830     74.849387
PC07 -15768.617867  23155.874492  31659.986271   -154.327975
PC08 -23026.009883  33814.384006 -10883.102249   -817.490934
PC09   2589.153315  40808.328986  -9125.872412    855.306574
PC10    358.840316  26729.063228  32850.360429   -117.980898
PC11 -14226.643157 -13662.458479  19789.428527   -834.552656
PC12  -6190.664252 -26668.711564   5374.536669    681.743068
PC13 -12020.647653  34147.198002 -21766.719991     64.369858
PC14 -25029.300176 -12162.820564   1705.831439   -263.050761
PC16  -6496.735468  34862.319995 -22579.563316   -637.688893
PC19  26265.263505   5623.369749   7604.604396    663.150935
PC20  20738.862309  16121.255294  -9445.887978   -910.846050
PC21  -2483.045453 -17456.903663  21635.810145   -763.311291
PC22  16737.005384  -8379.295595  20700.765673   -821.983622
PC23 -21915.522137  17210.747457   1601.466719   -890.497168
PC24 -10632.439775 -12295.130976 -22691.721942   -731.800753
PC25 -23302.557078   4611.516705 -14669.267681   -870.570103
PC26   6616.652172 -20682.491878 -17513.016297    950.821075
PC27   -240.960439  27601.321138   4036.113291    453.628371
PC28 -11526.870991  17012.497610  18891.251968   -130.958828
PC29  16144.855156   2893.228545 -22578.146787    328.154882
PC30  11751.405994  21866.605745 -12726.492124    420.859655
PC32   2601.345104  17442.111828 -21620.318322   -881.092385
PC33 -26295.622929  -5551.261241  -7496.297240   -881.019194
PC34 -12003.552567 -21459.250862  13215.460817   -780.594918
PC35  11106.118331 -17184.383280 -18988.612128   -501.583997
PC36  23288.649940  -3773.400895  14922.758873   -797.213371
PC37  -7909.724830  20686.374125  17008.918303   -862.814195
PC40  -7680.978832  20955.082839  35788.935099    113.508098
PE01  26370.321315   4181.528247  12770.596397  -1008.730427
PE02 -26449.229296  -4095.489160 -12665.150981    185.468790
PE03 -22980.170322 -14400.313401 -11859.523817   -378.829647
PE04  17901.162736  -4215.393327  23190.201718   -673.167815
PE05 -14649.538431 -24856.199614   6608.932165   -319.197784
PE07  -2156.032023  20704.926174 -21048.972719   -477.852483
PE08 -17597.628855   4524.821176 -23372.215165   6073.357113
PE09   1826.360922 -20701.794318  21068.521154   5824.343112
PE11  10329.063697 -27738.915269   -594.462954   6597.046292
PE12  18001.004117 -14799.165592 -18250.614329   5444.711812
PE13 -10453.915698  27676.360392    981.260211    408.843431
PE14   8473.403297 -21561.259573 -19915.077280  -1268.328508
PE15 -17891.168555  14937.569497  18261.229674    837.919700
PE18   4597.371000  25638.415605   6807.924895  -1385.962337
PE19  22647.232279  16265.136973   9924.977645    159.319219
PE21  10255.120358  14388.430991  23748.108800   -638.658657
PE24  12937.549525 -16468.882940 -20914.509406   -648.973271
PE25 -10089.985746 -14439.584829 -23781.485379   -522.764518
PE26   3558.541544  23791.073190 -17243.597908   2353.363380
PE27 -12307.767525  16582.678512  21217.801550     67.043833
PE30 -27819.148450   8484.266093   5557.479989   3324.360058
PE31  27493.263805  -9010.547302  -6223.559780   -476.714117
PE33  14792.605401   6565.881239 -24771.806791   -464.269149
PE36  -3131.329410 -24126.659792  16870.284765    464.462457
PG01 -14191.402592  22230.170876   -602.862185    792.165869
PG02  17982.215705  -7524.367334 -17384.410361   -557.347890
PG03 -11855.537644  13097.709422 -19883.441474    -36.478256
PG04  -4951.242080  18949.502586 -17914.690523   -166.502756
PG05  25964.915913  -3126.430557   5019.266384    -29.011703
PG06  12356.965661   7990.766178 -22048.884568     -4.318744
PG07  -2271.092887  22121.084311  14475.879597   -438.783485
PG08 -10750.266297  11261.049004  21494.334626     -3.813238
PG09   5673.470514  24333.171493  -9041.025691   -304.317562
PG10 -18015.771940 -11781.449600  15830.601077    -21.847856
PG11 -11577.408500  20336.822230  12438.861064    -74.286225
PG12  15716.354363 -10799.426770 -18660.172615     23.448049
PG13  15434.621940   -775.684157  21477.943541     77.703929
PG14  15398.355467  13441.394281  16956.705335     70.221965
PG15   9531.206232 -13363.090335  20470.151953   -181.552742
PG16 -26303.735695   -349.966682   4933.140128   -254.013083
PG17  14447.986099  20939.603063  -7220.591178    370.378394
PG18   1233.943720 -21254.711633  15838.561875    334.911658
PG19  16326.713564  15517.110633 -14421.154787    -61.976516
PG20  -6184.111371 -14967.778995  21019.248725    525.505131
PG21 -17312.902173  18007.061448   9151.371337     79.943575
PG22 -19406.211290  11178.904851 -13959.473778   -711.169796
PG23  -7102.200678 -14734.956197  20904.380433    111.877594
PG24  15185.890192 -21100.272101   4060.988640      4.783250
PG25   1066.835778 -15241.545135 -21969.619260     44.705014
PG26 -25324.155095  -5154.788104  -6734.493298     18.325102
PG27 -16683.525013  -2226.728740  20486.056188    -40.202654
PG28  17880.341280  12986.322557  15170.213232    639.857070
PG29  -2921.469387 -24315.498963 -10262.446162   -260.999963
PG30   6747.205722  16096.201239  20010.075481   -356.535425
PG31 -14606.024807  -5600.462151 -21577.051227    -89.180426
PG32 -16294.320486 -19605.548176  -7659.383651      9.723058
PJ01 -26155.480379  15503.218246 -24637.432911   -335.171730
PJ02 -31141.544771  26104.269838  16023.540513      0.214400
PJ03 -25762.625685  26730.569047  25014.535656     -4.702958
PJ07 -25410.374770  33654.826489     -9.164953      0.081332
PR01 -16918.450355 -16542.255816   9510.640234     72.406084
PR02 -21286.460630  -8073.625695 -11536.709328    459.681117
PR03 -11556.626273   4898.611840 -22180.285404     27.778155
PR04   4746.476599  14756.220108 -20235.369918     66.747163
PR05  18212.778354  16451.286936  -6899.027058     63.365840
PR07  10960.877163  -5424.128888  22407.482139    -41.904740
PR08  -4685.858873 -14874.439894  20239.462040    -56.419592
PR09  22272.444461  -4634.664692  11620.428532     14.441795
PR12 -10272.033228  -6797.130125 -22315.148647    190.382103
PR13 -22022.353938   4564.072507 -12056.423656    -48.290892
PR14 -20960.575659  13311.518138   5834.768606     59.022133
PR15  -7706.817728  14182.911477  19772.747746    106.246837
PR16  11120.417610   6302.447973  22028.962489     -9.391399
PR17  -9144.256414  16573.285119  17136.634255    384.606792
PR18  -3004.644948  25232.245262   1932.522472     60.536089
PR19   3896.520924  21077.491839 -13827.322233   -124.760198
PR20  10122.730078   2543.243539 -23259.283619   -429.416842
PR21   8846.669129 -17430.754425 -16363.829735   -174.955416
PR22   2594.528121 -25415.775234   -712.221092    -88.333136
PR24 -10727.185786  -1692.357595  23103.935233     24.985092
EOF
